IRIDIUM 112             
1 41925U 17003J   24023.74794322  .00000044  00000+0  86689-5 0  9990
2 41925  86.3948  94.1956 0002341  95.3440 264.8023 14.34217411367795
IRIDIUM 111             
1 41926U 17003K   24024.22363682  .00000394  00000+0  13350-3 0  9997
2 41926  86.3951  94.0485 0002232  85.4665 274.6786 14.34217006367913
IRIDIUM 113             
1 42803U 17039A   24023.92452343  .00000016  00000+0 -13389-5 0  9996
2 42803  86.4002 327.9252 0002319  79.5910 280.5547 14.34215836345735
IRIDIUM 123             
1 42804U 17039B   24023.96600478  .00000541  00000+0  18608-3 0  9994
2 42804  86.3985 359.3939 0002339  90.1380 270.0084 14.34216525344508
IRIDIUM 120             
1 42805U 17039C   24023.91817683  .00000556  00000+0  19136-3 0  9991
2 42805  86.3990 327.8238 0002171  82.3240 277.8202 14.34215864345726
IRIDIUM 115             
1 42806U 17039D   24023.88603299  .00000539  00000+0  15425-3 0  9992
2 42806  86.4523 327.8408 0002510  81.0359 279.1126 14.43293497348016
IRIDIUM 118             
1 42807U 17039E   24024.13725622  .00000471  00000+0  16118-3 0  9992
2 42807  86.3988 359.3245 0002210  87.1520 272.9928 14.34218352344535
IRIDIUM 117             
1 42808U 17039F   24023.94697716  .00000197  00000+0  63217-4 0  9991
2 42808  86.3986 359.3694 0002181  81.1162 279.0281 14.34217474344528
